CCSDS_OMM_VERS = 2.0
CREATION_DATE  = 
ORIGINATOR     = 

OBJECT_NAME    = SL-16 R/B
OBJECT_ID      = 1994-074B
CENTER_NAME    = EARTH
REF_FRAME      = TEME
TIME_SYSTEM    = UTC
MEAN_ELEMENT_THEORY = SGP/SGP4

EPOCH          = 2026-02-11T15:04:23.920896
MEAN_MOTION    = 14.79376432
ECCENTRICITY   = .00054794
INCLINATION    = 97.7144
RA_OF_ASC_NODE = 74.4973
ARG_OF_PERICENTER = 315.7489
MEAN_ANOMALY   = 158.9028

EPHEMERIS_TYPE = 0
CLASSIFICATION_TYPE = U
NORAD_CAT_ID   = 23343
ELEMENT_SET_NO = 999
REV_AT_EPOCH   = 68339
BSTAR          = .76332309E-4
MEAN_MOTION_DOT = .52E-5
MEAN_MOTION_DDOT = 0

CCSDS_OMM_VERS = 2.0
CREATION_DATE  = 
ORIGINATOR     = 

OBJECT_NAME    = SL-16 R/B
OBJECT_ID      = 1994-077B
CENTER_NAME    = EARTH
REF_FRAME      = TEME
TIME_SYSTEM    = UTC
MEAN_ELEMENT_THEORY = SGP/SGP4

EPOCH          = 2026-02-11T09:49:30.686016
MEAN_MOTION    = 14.15558572
ECCENTRICITY   = .00041836
INCLINATION    = 70.9819
RA_OF_ASC_NODE = 47.7771
ARG_OF_PERICENTER = 233.5739
MEAN_ANOMALY   = 126.4998

EPHEMERIS_TYPE = 0
CLASSIFICATION_TYPE = U
NORAD_CAT_ID   = 23405
ELEMENT_SET_NO = 999
REV_AT_EPOCH   = 61251
BSTAR          = .16121109E-3
MEAN_MOTION_DOT = .268E-5
MEAN_MOTION_DDOT = 0

CCSDS_OMM_VERS = 2.0
CREATION_DATE  = 
ORIGINATOR     = 

OBJECT_NAME    = ARIANE 40+ R/B
OBJECT_ID      = 1995-021B
CENTER_NAME    = EARTH
REF_FRAME      = TEME
TIME_SYSTEM    = UTC
MEAN_ELEMENT_THEORY = SGP/SGP4

EPOCH          = 2026-02-11T02:58:45.060960
MEAN_MOTION    = 14.39752661
ECCENTRICITY   = .00062082
INCLINATION    = 98.4553
RA_OF_ASC_NODE = 113.9594
ARG_OF_PERICENTER = 213.2675
MEAN_ANOMALY   = 175.8552

EPHEMERIS_TYPE = 0
CLASSIFICATION_TYPE = U
NORAD_CAT_ID   = 23561
ELEMENT_SET_NO = 999
REV_AT_EPOCH   = 61542
BSTAR          = .11488758E-3
MEAN_MOTION_DOT = .316E-5
MEAN_MOTION_DDOT = 0

CCSDS_OMM_VERS = 2.0
CREATION_DATE  = 
ORIGINATOR     = 

OBJECT_NAME    = SL-16 R/B
OBJECT_ID      = 1995-058B
CENTER_NAME    = EARTH
REF_FRAME      = TEME
TIME_SYSTEM    = UTC
MEAN_ELEMENT_THEORY = SGP/SGP4

EPOCH          = 2026-02-11T15:02:59.535744
MEAN_MOTION    = 14.15494390
ECCENTRICITY   = .00120216
INCLINATION    = 71.0193
RA_OF_ASC_NODE = 234.9721
ARG_OF_PERICENTER = 169.2362
MEAN_ANOMALY   = 190.9021

EPHEMERIS_TYPE = 0
CLASSIFICATION_TYPE = U
NORAD_CAT_ID   = 23705
ELEMENT_SET_NO = 999
REV_AT_EPOCH   = 56416
BSTAR          = .13779282E-3
MEAN_MOTION_DOT = .222E-5
MEAN_MOTION_DDOT = 0

CCSDS_OMM_VERS = 2.0
CREATION_DATE  = 
ORIGINATOR     = 

OBJECT_NAME    = SL-16 R/B
OBJECT_ID      = 1996-051B
CENTER_NAME    = EARTH
REF_FRAME      = TEME
TIME_SYSTEM    = UTC
MEAN_ELEMENT_THEORY = SGP/SGP4

EPOCH          = 2026-02-11T14:35:28.330656
MEAN_MOTION    = 14.12408132
ECCENTRICITY   = .0017339
INCLINATION    = 70.7565
RA_OF_ASC_NODE = 230.4440
ARG_OF_PERICENTER = 184.8146
MEAN_ANOMALY   = 175.2810

EPHEMERIS_TYPE = 0
CLASSIFICATION_TYPE = U
NORAD_CAT_ID   = 24298
ELEMENT_SET_NO = 999
REV_AT_EPOCH   = 51796
BSTAR          = .80226963E-4
MEAN_MOTION_DOT = .99E-6
MEAN_MOTION_DDOT = 0

CCSDS_OMM_VERS = 2.0
CREATION_DATE  = 
ORIGINATOR     = 

OBJECT_NAME    = ORBVIEW 2 (SEASTAR)
OBJECT_ID      = 1997-037A
CENTER_NAME    = EARTH
REF_FRAME      = TEME
TIME_SYSTEM    = UTC
MEAN_ELEMENT_THEORY = SGP/SGP4

EPOCH          = 2026-02-11T10:03:06.309792
MEAN_MOTION    = 14.35474569
ECCENTRICITY   = .00030298
INCLINATION    = 98.8521
RA_OF_ASC_NODE = 206.0414
ARG_OF_PERICENTER = 125.2402
MEAN_ANOMALY   = 234.9067

EPHEMERIS_TYPE = 0
CLASSIFICATION_TYPE = U
NORAD_CAT_ID   = 24883
ELEMENT_SET_NO = 999
REV_AT_EPOCH   = 50470
BSTAR          = .1480422E-3
MEAN_MOTION_DOT = .379E-5
MEAN_MOTION_DDOT = 0

CCSDS_OMM_VERS = 2.0
CREATION_DATE  = 
ORIGINATOR     = 

OBJECT_NAME    = SL-16 R/B
OBJECT_ID      = 1998-043G
CENTER_NAME    = EARTH
REF_FRAME      = TEME
TIME_SYSTEM    = UTC
MEAN_ELEMENT_THEORY = SGP/SGP4

EPOCH          = 2026-02-11T11:46:14.139552
MEAN_MOTION    = 14.26043488
ECCENTRICITY   = .00109601
INCLINATION    = 98.8208
RA_OF_ASC_NODE = 355.6756
ARG_OF_PERICENTER = 90.3927
MEAN_ANOMALY   = 269.8508

EPHEMERIS_TYPE = 0
CLASSIFICATION_TYPE = U
NORAD_CAT_ID   = 25400
ELEMENT_SET_NO = 999
REV_AT_EPOCH   = 43525
BSTAR          = .54037773E-4
MEAN_MOTION_DOT = .84E-6
MEAN_MOTION_DDOT = 0

CCSDS_OMM_VERS = 2.0
CREATION_DATE  = 
ORIGINATOR     = 

OBJECT_NAME    = SL-16 R/B
OBJECT_ID      = 1998-045B
CENTER_NAME    = EARTH
REF_FRAME      = TEME
TIME_SYSTEM    = UTC
MEAN_ELEMENT_THEORY = SGP/SGP4

EPOCH          = 2026-02-11T13:55:28.951680
MEAN_MOTION    = 14.16185921
ECCENTRICITY   = .00054978
INCLINATION    = 71.0082
RA_OF_ASC_NODE = 236.4808
ARG_OF_PERICENTER = 56.4947
MEAN_ANOMALY   = 303.6701

EPHEMERIS_TYPE = 0
CLASSIFICATION_TYPE = U
NORAD_CAT_ID   = 25407
ELEMENT_SET_NO = 999
REV_AT_EPOCH   = 42340
BSTAR          = .11826655E-3
MEAN_MOTION_DOT = .186E-5
MEAN_MOTION_DDOT = 0

CCSDS_OMM_VERS = 2.0
CREATION_DATE  = 
ORIGINATOR     = 

OBJECT_NAME    = ISS (ZARYA)
OBJECT_ID      = 1998-067A
CENTER_NAME    = EARTH
REF_FRAME      = TEME
TIME_SYSTEM    = UTC
MEAN_ELEMENT_THEORY = SGP/SGP4

EPOCH          = 2026-02-11T13:38:46.685760
MEAN_MOTION    = 15.48546282
ECCENTRICITY   = .00110981
INCLINATION    = 51.6315
RA_OF_ASC_NODE = 201.4814
ARG_OF_PERICENTER = 88.2914
MEAN_ANOMALY   = 271.9345

EPHEMERIS_TYPE = 0
CLASSIFICATION_TYPE = U
NORAD_CAT_ID   = 25544
ELEMENT_SET_NO = 999
REV_AT_EPOCH   = 55228
BSTAR          = .18596766E-3
MEAN_MOTION_DOT = .9664E-4
MEAN_MOTION_DDOT = 0

CCSDS_OMM_VERS = 2.0
CREATION_DATE  = 
ORIGINATOR     = 

OBJECT_NAME    = CZ-4B R/B
OBJECT_ID      = 1999-025C
CENTER_NAME    = EARTH
REF_FRAME      = TEME
TIME_SYSTEM    = UTC
MEAN_ELEMENT_THEORY = SGP/SGP4

EPOCH          = 2026-02-11T15:26:11.906304
MEAN_MOTION    = 14.18260052
ECCENTRICITY   = .00379975
INCLINATION    = 98.6680
RA_OF_ASC_NODE = 87.5352
ARG_OF_PERICENTER = 60.8596
MEAN_ANOMALY   = 52.1247

EPHEMERIS_TYPE = 0
CLASSIFICATION_TYPE = U
NORAD_CAT_ID   = 25732
ELEMENT_SET_NO = 999
REV_AT_EPOCH   = 38447
BSTAR          = .41838082E-4
MEAN_MOTION_DOT = .44E-6
MEAN_MOTION_DDOT = 0

CCSDS_OMM_VERS = 2.0
CREATION_DATE  = 
ORIGINATOR     = 

OBJECT_NAME    = OKEAN-O
OBJECT_ID      = 1999-039A
CENTER_NAME    = EARTH
REF_FRAME      = TEME
TIME_SYSTEM    = UTC
MEAN_ELEMENT_THEORY = SGP/SGP4

EPOCH          = 2026-02-11T03:43:08.550912
MEAN_MOTION    = 14.80291606
ECCENTRICITY   = .00018681
INCLINATION    = 97.9503
RA_OF_ASC_NODE = 102.3084
ARG_OF_PERICENTER = 84.6184
MEAN_ANOMALY   = 275.5242

EPHEMERIS_TYPE = 0
CLASSIFICATION_TYPE = U
NORAD_CAT_ID   = 25860
ELEMENT_SET_NO = 999
REV_AT_EPOCH   = 43046
BSTAR          = .10638381E-3
MEAN_MOTION_DOT = .758E-5
MEAN_MOTION_DDOT = 0

CCSDS_OMM_VERS = 2.0
CREATION_DATE  = 
ORIGINATOR     = 

OBJECT_NAME    = SL-16 R/B
OBJECT_ID      = 1999-039B
CENTER_NAME    = EARTH
REF_FRAME      = TEME
TIME_SYSTEM    = UTC
MEAN_ELEMENT_THEORY = SGP/SGP4

EPOCH          = 2026-02-11T03:50:15.519840
MEAN_MOTION    = 14.81693571
ECCENTRICITY   = .00144336
INCLINATION    = 98.0025
RA_OF_ASC_NODE = 101.2880
ARG_OF_PERICENTER = 348.9218
MEAN_ANOMALY   = 11.1674

EPHEMERIS_TYPE = 0
CLASSIFICATION_TYPE = U
NORAD_CAT_ID   = 25861
ELEMENT_SET_NO = 999
REV_AT_EPOCH   = 43293
BSTAR          = .86750011E-4
MEAN_MOTION_DOT = .63E-5
MEAN_MOTION_DDOT = 0

CCSDS_OMM_VERS = 2.0
CREATION_DATE  = 
ORIGINATOR     = 

OBJECT_NAME    = DELTA 2 R/B
OBJECT_ID      = 1999-041E
CENTER_NAME    = EARTH
REF_FRAME      = TEME
TIME_SYSTEM    = UTC
MEAN_ELEMENT_THEORY = SGP/SGP4

EPOCH          = 2026-02-11T11:03:08.639424
MEAN_MOTION    = 14.11733899
ECCENTRICITY   = .05022562
INCLINATION    = 51.7654
RA_OF_ASC_NODE = 46.0245
ARG_OF_PERICENTER = 270.9502
MEAN_ANOMALY   = 83.3942

EPHEMERIS_TYPE = 0
CLASSIFICATION_TYPE = U
NORAD_CAT_ID   = 25876
ELEMENT_SET_NO = 999
REV_AT_EPOCH   = 35932
BSTAR          = .41909625E-3
MEAN_MOTION_DOT = .2373E-4
MEAN_MOTION_DDOT = 0

CCSDS_OMM_VERS = 2.0
CREATION_DATE  = 
ORIGINATOR     = 

OBJECT_NAME    = HELIOS 1B
OBJECT_ID      = 1999-064A
CENTER_NAME    = EARTH
REF_FRAME      = TEME
TIME_SYSTEM    = UTC
MEAN_ELEMENT_THEORY = SGP/SGP4

EPOCH          = 2026-02-11T14:47:36.184128
MEAN_MOTION    = 14.87589154
ECCENTRICITY   = .00021599
INCLINATION    = 98.1722
RA_OF_ASC_NODE = 304.0902
ARG_OF_PERICENTER = 111.8010
MEAN_ANOMALY   = 248.3435

EPHEMERIS_TYPE = 0
CLASSIFICATION_TYPE = U
NORAD_CAT_ID   = 25977
ELEMENT_SET_NO = 999
REV_AT_EPOCH   = 68138
BSTAR          = .21638568E-3
MEAN_MOTION_DOT = .1907E-4
MEAN_MOTION_DDOT = 0

CCSDS_OMM_VERS = 2.0
CREATION_DATE  = 
ORIGINATOR     = 

OBJECT_NAME    = TERRA
OBJECT_ID      = 1999-068A
CENTER_NAME    = EARTH
REF_FRAME      = TEME
TIME_SYSTEM    = UTC
MEAN_ELEMENT_THEORY = SGP/SGP4

EPOCH          = 2026-02-11T15:10:03.143712
MEAN_MOTION    = 14.60985930
ECCENTRICITY   = .00009779
INCLINATION    = 97.9651
RA_OF_ASC_NODE = 97.0547
ARG_OF_PERICENTER = 250.3010
MEAN_ANOMALY   = 225.3221

EPHEMERIS_TYPE = 0
CLASSIFICATION_TYPE = U
NORAD_CAT_ID   = 25994
ELEMENT_SET_NO = 999
REV_AT_EPOCH   = 39127
BSTAR          = .10352181E-3
MEAN_MOTION_DOT = .463E-5
MEAN_MOTION_DDOT = 0

